IRIDIUM 133             
1 42955U 17061A   24270.13813337  .00000125  00000+0  37692-4 0  9992
2 42955  86.3916 288.1289 0002291  90.0376 270.1082 14.34219149364615
IRIDIUM 121             
1 42812U 17039K   24269.92541620  .00000141  00000+0  43456-4 0  9990
2 42812  86.3920 256.5867 0002263  89.2321 270.9134 14.34218846379639
IRIDIUM 122             
1 42957U 17061C   24270.10007827  .00000247  00000+0  81261-4 0  9996
2 42957  86.3913 288.0765 0002032  94.5514 265.5914 14.34218953364612
IRIDIUM 128             
1 42811U 17039J   24270.10641856  .00000190  00000+0  60774-4 0  9999
2 42811  86.3913 288.0397 0002169  96.6837 263.4606 14.34218102379813
IRIDIUM 126             
1 42809U 17039G   24270.04591177  .00000639  00000+0  22111-3 0  9999
2 42809  86.3918 256.5136 0002159  89.1187 271.0256 14.34216954379785
IRIDIUM 100             
1 42956U 17061B   24269.64340903  .00000298  00000+0  99460-4 0  9993
2 42956  86.3913 288.2690 0002231  95.7796 264.3654 14.34220327364544
